{
"type": "FeatureCollection",
"crs": { "type": "name", "properties": { "name": "urn:ogc:def:crs:OGC:1.3:CRS84" } },
"features": [
{ "type": "Feature", "properties": { "element_type": "node", "osmid": 356551783, "addr:city": "Seattle", "addr:housenumber": "2600", "addr:postcode": "98126", "addr:street": "Southwest Holden Street", "amenity": "hospital", "emergency": "no", "gnis:feature_id": "2462543", "healthcare": "hospital", "healthcare:speciality": "psychiatry", "name": "Navos West Seattle Campus", "old_name": "West Seattle Psychiatric Hospital", "operator": "Navos Mental Health Solutions", "phone": "+1 206 933 7000", "website": "https://www.navos.org/", "access": null, "wheelchair": null, "addr:state": null, "operator:type": null, "alt_name": null, "beds": null, "ele": null, "gnis:county_id": null, "gnis:created": null, "gnis:state_id": null, "wikidata": null, "brand": null, "brand:wikidata": null, "brand:wikipedia": null, "healthcare:for": null, "opening_hours": null, "operator:short": null, "operator:wikidata": null, "short_name": null, "wikipedia": null, "building": null, "wikimedia_commons": null, "operator:wikipedia": null, "source": null, "contact:phone": null, "contact:website": null, "type": null }, "geometry": { "type": "Point", "coordinates": [ -122.366224, 47.534445 ] } },
{ "type": "Feature", "properties": { "element_type": "node", "osmid": 9525009816, "addr:city": "Seattle", "addr:housenumber": "1101", "addr:postcode": "98104", "addr:street": "Marion Street", "amenity": "hospital", "emergency": null, "gnis:feature_id": null, "healthcare": "hospital", "healthcare:speciality": "plastic_surgery;surgery", "name": "The Seattle Facial Plastic Surgery Center", "old_name": null, "operator": "Dr William Portuese", "phone": null, "website": null, "access": null, "wheelchair": null, "addr:state": "WA", "operator:type": "business", "alt_name": null, "beds": null, "ele": null, "gnis:county_id": null, "gnis:created": null, "gnis:state_id": null, "wikidata": null, "brand": null, "brand:wikidata": null, "brand:wikipedia": null, "healthcare:for": null, "opening_hours": null, "operator:short": null, "operator:wikidata": null, "short_name": null, "wikipedia": null, "building": null, "wikimedia_commons": null, "operator:wikipedia": null, "source": null, "contact:phone": null, "contact:website": null, "type": null }, "geometry": { "type": "Point", "coordinates": [ -122.3242052, 47.6091703 ] } },
{ "type": "Feature", "properties": { "element_type": "way", "osmid": 38522975, "addr:city": "Seattle", "addr:housenumber": null, "addr:postcode": null, "addr:street": null, "amenity": "hospital", "emergency": "yes", "gnis:feature_id": "1509819", "healthcare": "hospital", "healthcare:speciality": null, "name": "University of Washington Medical Center - Northwest", "old_name": "Northwest Hospital & Medical Center", "operator": "UW Medicine", "phone": null, "website": "https://www.uwmedicine.org/locations/northwest-hospital", "access": null, "wheelchair": null, "addr:state": null, "operator:type": null, "alt_name": "UW Medical Center - Northwest", "beds": "231", "ele": "121", "gnis:county_id": "033", "gnis:created": "08/01/1990", "gnis:state_id": "53", "wikidata": "Q7060076", "brand": null, "brand:wikidata": null, "brand:wikipedia": null, "healthcare:for": null, "opening_hours": null, "operator:short": null, "operator:wikidata": null, "short_name": null, "wikipedia": null, "building": null, "wikimedia_commons": null, "operator:wikipedia": null, "source": null, "contact:phone": null, "contact:website": null, "type": null }, "geometry": { "type": "Point", "coordinates": [ -122.337208432165156, 47.714080505146597 ] } },
{ "type": "Feature", "properties": { "element_type": "way", "osmid": 53615315, "addr:city": "Seattle", "addr:housenumber": "1660", "addr:postcode": "98108", "addr:street": "South Columbian Way", "amenity": "hospital", "emergency": "yes", "gnis:feature_id": null, "healthcare": "hospital", "healthcare:speciality": null, "name": "VA Medical Center - Seattle", "old_name": null, "operator": "Veterans Health Administration", "phone": "+1 206 762 1010", "website": "https://www.pugetsound.va.gov/", "access": "private", "wheelchair": null, "addr:state": null, "operator:type": "government", "alt_name": null, "beds": "429", "ele": null, "gnis:county_id": null, "gnis:created": null, "gnis:state_id": null, "wikidata": null, "brand": "VA", "brand:wikidata": "Q6580225", "brand:wikipedia": "en:Veterans Health Administration", "healthcare:for": "veterans", "opening_hours": "24/7", "operator:short": "VA", "operator:wikidata": "Q6580225", "short_name": "VA", "wikipedia": null, "building": null, "wikimedia_commons": null, "operator:wikipedia": null, "source": null, "contact:phone": null, "contact:website": null, "type": null }, "geometry": { "type": "Point", "coordinates": [ -122.308238882271596, 47.56306422060338 ] } },
{ "type": "Feature", "properties": { "element_type": "way", "osmid": 169511257, "addr:city": "Seattle", "addr:housenumber": "325", "addr:postcode": "98104", "addr:street": "9th Avenue", "amenity": "hospital", "emergency": "yes", "gnis:feature_id": null, "healthcare": "hospital", "healthcare:speciality": null, "name": "Harborview Medical Center", "old_name": null, "operator": "UW Medicine", "phone": "+1 206 744 3000", "website": "https://www.uwmedicine.org/harborview", "access": null, "wheelchair": "yes", "addr:state": null, "operator:type": null, "alt_name": null, "beds": "413", "ele": null, "gnis:county_id": null, "gnis:created": null, "gnis:state_id": null, "wikidata": "Q5654758", "brand": null, "brand:wikidata": null, "brand:wikipedia": null, "healthcare:for": null, "opening_hours": "24/7", "operator:short": null, "operator:wikidata": null, "short_name": null, "wikipedia": "en:Harborview Medical Center", "building": null, "wikimedia_commons": null, "operator:wikipedia": null, "source": null, "contact:phone": null, "contact:website": null, "type": null }, "geometry": { "type": "Point", "coordinates": [ -122.323963992747082, 47.604151428539389 ] } },
{ "type": "Feature", "properties": { "element_type": "way", "osmid": 242182549, "addr:city": "Seattle", "addr:housenumber": "1959", "addr:postcode": "98195", "addr:street": "Northeast Pacific Street", "amenity": "hospital", "emergency": "yes", "gnis:feature_id": null, "healthcare": "hospital", "healthcare:speciality": null, "name": "University of Washington Medical Center - Montlake", "old_name": null, "operator": "UW Medicine", "phone": "+1 206 598 3300", "website": "https://www.uwmedicine.org/uw-medical-center", "access": null, "wheelchair": null, "addr:state": null, "operator:type": null, "alt_name": "UW Medical Center - Montlake", "beds": "450", "ele": null, "gnis:county_id": null, "gnis:created": null, "gnis:state_id": null, "wikidata": "Q7896576", "brand": null, "brand:wikidata": null, "brand:wikipedia": null, "healthcare:for": null, "opening_hours": "24/7", "operator:short": null, "operator:wikidata": null, "short_name": null, "wikipedia": "en:University of Washington Medical Center", "building": "yes", "wikimedia_commons": "Category:University of Washington Medical Center", "operator:wikipedia": null, "source": null, "contact:phone": null, "contact:website": null, "type": null }, "geometry": { "type": "Point", "coordinates": [ -122.307505500575189, 47.649308853550309 ] } },
{ "type": "Feature", "properties": { "element_type": "way", "osmid": 292245531, "addr:city": "Seattle", "addr:housenumber": "5300", "addr:postcode": "98107", "addr:street": "Tallman Avenue Northwest", "amenity": "hospital", "emergency": "yes", "gnis:feature_id": null, "healthcare": "hospital", "healthcare:speciality": null, "name": "Swedish Medical Center Ballard Campus", "old_name": null, "operator": "Swedish Medical Center", "phone": "+1 206 782 2700", "website": "https://www.swedish.org/locations/ballard-campus", "access": null, "wheelchair": null, "addr:state": null, "operator:type": null, "alt_name": null, "beds": "163", "ele": null, "gnis:county_id": null, "gnis:created": null, "gnis:state_id": null, "wikidata": null, "brand": null, "brand:wikidata": null, "brand:wikipedia": null, "healthcare:for": null, "opening_hours": "24/7", "operator:short": null, "operator:wikidata": null, "short_name": null, "wikipedia": null, "building": null, "wikimedia_commons": null, "operator:wikipedia": null, "source": null, "contact:phone": null, "contact:website": null, "type": null }, "geometry": { "type": "Point", "coordinates": [ -122.380046541453098, 47.667608110591658 ] } },
{ "type": "Feature", "properties": { "element_type": "way", "osmid": 297300958, "addr:city": "Seattle", "addr:housenumber": "201", "addr:postcode": "98112", "addr:street": "16th Avenue East", "amenity": "hospital", "emergency": "no", "gnis:feature_id": null, "healthcare": "hospital", "healthcare:speciality": null, "name": "Kaiser Permanente Capitol Hill Campus", "old_name": null, "operator": "Kaiser Permanente", "phone": null, "website": null, "access": null, "wheelchair": null, "addr:state": "WA", "operator:type": null, "alt_name": null, "beds": null, "ele": null, "gnis:county_id": null, "gnis:created": null, "gnis:state_id": null, "wikidata": null, "brand": null, "brand:wikidata": null, "brand:wikipedia": null, "healthcare:for": null, "opening_hours": null, "operator:short": "KP", "operator:wikidata": "Q1721601", "short_name": null, "wikipedia": null, "building": null, "wikimedia_commons": null, "operator:wikipedia": "en:Kaiser Permanente", "source": "King County GIS;data.seattle.gov", "contact:phone": null, "contact:website": null, "type": null }, "geometry": { "type": "Point", "coordinates": [ -122.312136058082274, 47.619783168677458 ] } },
{ "type": "Feature", "properties": { "element_type": "way", "osmid": 297302349, "addr:city": "Seattle", "addr:housenumber": "1100", "addr:postcode": "98101", "addr:street": "9th Avenue", "amenity": "hospital", "emergency": "no", "gnis:feature_id": null, "healthcare": "hospital", "healthcare:speciality": null, "name": "Virginia Mason Hospital & Seattle Medical Center", "old_name": null, "operator": null, "phone": "+1 206 223 6600", "website": "https://www.virginiamason.org", "access": null, "wheelchair": null, "addr:state": "WA", "operator:type": null, "alt_name": "VM Seattle", "beds": "336", "ele": null, "gnis:county_id": null, "gnis:created": null, "gnis:state_id": null, "wikidata": "Q7934401", "brand": null, "brand:wikidata": null, "brand:wikipedia": null, "healthcare:for": null, "opening_hours": "24/7", "operator:short": null, "operator:wikidata": null, "short_name": null, "wikipedia": "en:Virginia Mason Hospital", "building": null, "wikimedia_commons": null, "operator:wikipedia": null, "source": null, "contact:phone": null, "contact:website": null, "type": null }, "geometry": { "type": "Point", "coordinates": [ -122.327971249386422, 47.610088280178225 ] } },
{ "type": "Feature", "properties": { "element_type": "way", "osmid": 333369584, "addr:city": "Seattle", "addr:housenumber": "747", "addr:postcode": "98122", "addr:street": "Broadway", "amenity": "hospital", "emergency": "yes", "gnis:feature_id": null, "healthcare": "hospital", "healthcare:speciality": null, "name": "Swedish First Hill Medical Center", "old_name": null, "operator": "Swedish", "phone": null, "website": null, "access": null, "wheelchair": null, "addr:state": null, "operator:type": null, "alt_name": null, "beds": "830", "ele": null, "gnis:county_id": null, "gnis:created": null, "gnis:state_id": null, "wikidata": null, "brand": null, "brand:wikidata": null, "brand:wikipedia": null, "healthcare:for": null, "opening_hours": "24/7", "operator:short": null, "operator:wikidata": null, "short_name": null, "wikipedia": null, "building": null, "wikimedia_commons": null, "operator:wikipedia": null, "source": "King County GIS", "contact:phone": "+1 (206) 386-6000", "contact:website": "http://www.swedish.org/locations/first-hill-campus", "type": null }, "geometry": { "type": "Point", "coordinates": [ -122.322405429541675, 47.608654728404801 ] } },
{ "type": "Feature", "properties": { "element_type": "way", "osmid": 1066764914, "addr:city": "Seattle", "addr:housenumber": "500", "addr:postcode": "98122", "addr:street": "17th Avenue", "amenity": "hospital", "emergency": "yes", "gnis:feature_id": null, "healthcare": "hospital", "healthcare:speciality": null, "name": "Swedish Medical Center Cherry Hill Campus", "old_name": null, "operator": "Swedish", "phone": null, "website": null, "access": null, "wheelchair": null, "addr:state": null, "operator:type": null, "alt_name": null, "beds": "385", "ele": null, "gnis:county_id": null, "gnis:created": null, "gnis:state_id": null, "wikidata": null, "brand": null, "brand:wikidata": null, "brand:wikipedia": null, "healthcare:for": null, "opening_hours": "24/7", "operator:short": null, "operator:wikidata": null, "short_name": null, "wikipedia": null, "building": null, "wikimedia_commons": null, "operator:wikipedia": null, "source": null, "contact:phone": "+1 (206) 320-2000", "contact:website": "http://www.swedish.org/locations/cherry-hill-campus", "type": null }, "geometry": { "type": "Point", "coordinates": [ -122.310904092254972, 47.607112275442553 ] } },
{ "type": "Feature", "properties": { "element_type": "relation", "osmid": 7528363, "addr:city": "Seattle", "addr:housenumber": "4800", "addr:postcode": "98105", "addr:street": "Sand Point Way Northeast", "amenity": "hospital", "emergency": "yes", "gnis:feature_id": "2461625", "healthcare": "hospital", "healthcare:speciality": "paediatrics", "name": "Seattle Children's Hospital", "old_name": null, "operator": null, "phone": "+1 206 987 2000", "website": "https://www.seattlechildrens.org/", "access": null, "wheelchair": null, "addr:state": null, "operator:type": null, "alt_name": null, "beds": "407", "ele": null, "gnis:county_id": null, "gnis:created": null, "gnis:state_id": null, "wikidata": "Q7442069", "brand": null, "brand:wikidata": null, "brand:wikipedia": null, "healthcare:for": null, "opening_hours": "24/7", "operator:short": null, "operator:wikidata": null, "short_name": null, "wikipedia": null, "building": null, "wikimedia_commons": null, "operator:wikipedia": null, "source": null, "contact:phone": null, "contact:website": "http://www.seattlechildrens.org/", "type": "multipolygon" }, "geometry": { "type": "Point", "coordinates": [ -122.282275868543095, 47.662831625147952 ] } }
]
}
